[ {"OBJECT_NAME": "LEOPARD", "OBJECT_ID": "1998-067YD", "EPOCH": "2026-06-05T01:58:04.520064", "MEAN_MOTION": 15.59699644, "ECCENTRICITY": 0.00081039, "INCLINATION": 51.6318, "RA_OF_ASC_NODE": 354.9898, "ARG_OF_PERICENTER": 143.0545, "MEAN_ANOMALY": 217.1008, "EPHEMERIS_TYPE": 0, "CLASSIFICATION_TYPE": "U", "NORAD_CAT_ID": 67687, "ELEMENT_SET_NO": 999, "REV_AT_EPOCH": 1831, "BSTAR": 0.00074040421, "MEAN_MOTION_DOT": 0.00060353, "MEAN_MOTION_DDOT": 0}, {"OBJECT_NAME": "HMU-SAT2", "OBJECT_ID": "1998-067YE", "EPOCH": "2026-06-06T19:14:39.567840", "MEAN_MOTION": 15.61954095, "ECCENTRICITY": 0.0007661, "INCLINATION": 51.6287, "RA_OF_ASC_NODE": 345.4698, "ARG_OF_PERICENTER": 154.5207, "MEAN_ANOMALY": 205.6166, "EPHEMERIS_TYPE": 0, "CLASSIFICATION_TYPE": "U", "NORAD_CAT_ID": 67688, "ELEMENT_SET_NO": 999, "REV_AT_EPOCH": 1859, "BSTAR": 0.00089653, "MEAN_MOTION_DOT": 0.00080036, "MEAN_MOTION_DDOT": 0}, {"OBJECT_NAME": "CREW DRAGON 12", "OBJECT_ID": "2026-031A", "EPOCH": "2026-06-06T20:52:03.052128", "MEAN_MOTION": 15.4964234, "ECCENTRICITY": 0.0006978, "INCLINATION": 51.6338, "RA_OF_ASC_NODE": 351.1688, "ARG_OF_PERICENTER": 142.0049, "MEAN_ANOMALY": 218.1433, "EPHEMERIS_TYPE": 0, "CLASSIFICATION_TYPE": "U", "NORAD_CAT_ID": 67796, "ELEMENT_SET_NO": 999, "REV_AT_EPOCH": 57015, "BSTAR": 0.00017237, "MEAN_MOTION_DOT": 9.276e-05, "MEAN_MOTION_DDOT": 0}, {"OBJECT_NAME": "PROGRESS-MS 33", "OBJECT_ID": "2026-058A", "EPOCH": "2026-06-06T20:52:03.052128", "MEAN_MOTION": 15.4964234, "ECCENTRICITY": 0.0006978, "INCLINATION": 51.6338, "RA_OF_ASC_NODE": 351.1688, "ARG_OF_PERICENTER": 142.0049, "MEAN_ANOMALY": 218.1433, "EPHEMERIS_TYPE": 0, "CLASSIFICATION_TYPE": "U", "NORAD_CAT_ID": 68319, "ELEMENT_SET_NO": 999, "REV_AT_EPOCH": 57015, "BSTAR": 0.00017237, "MEAN_MOTION_DOT": 9.276e-05, "MEAN_MOTION_DDOT": 0}, {"OBJECT_NAME": "CYGNUS NG-24", "OBJECT_ID": "2026-079A", "EPOCH": "2026-06-06T08:29:08.565504", "MEAN_MOTION": 15.49632727, "ECCENTRICITY": 0.00070327, "INCLINATION": 51.6338, "RA_OF_ASC_NODE": 353.7235, "ARG_OF_PERICENTER": 140.5893, "MEAN_ANOMALY": 219.5608, "EPHEMERIS_TYPE": 0, "CLASSIFICATION_TYPE": "U", "NORAD_CAT_ID": 68689, "ELEMENT_SET_NO": 999, "REV_AT_EPOCH": 63684, "BSTAR": 0.00017682051, "MEAN_MOTION_DOT": 9.524e-05, "MEAN_MOTION_DDOT": 0}, {"OBJECT_NAME": "PROGRESS-MS 34", "OBJECT_ID": "2026-093A", "EPOCH": "2026-06-06T08:29:08.565504", "MEAN_MOTION": 15.49632727, "ECCENTRICITY": 0.00070327, "INCLINATION": 51.6338, "RA_OF_ASC_NODE": 353.7235, "ARG_OF_PERICENTER": 140.5893, "MEAN_ANOMALY": 219.5608, "EPHEMERIS_TYPE": 0, "CLASSIFICATION_TYPE": "U", "NORAD_CAT_ID": 68837, "ELEMENT_SET_NO": 999, "REV_AT_EPOCH": 64291, "BSTAR": 0.00017682051, "MEAN_MOTION_DOT": 9.524e-05, "MEAN_MOTION_DDOT": 0}, {"OBJECT_NAME": "TIANZHOU-10", "OBJECT_ID": "2026-102A", "EPOCH": "2026-06-06T14:38:07.699776", "MEAN_MOTION": 15.60358302, "ECCENTRICITY": 0.00091619, "INCLINATION": 41.4693, "RA_OF_ASC_NODE": 26.3518, "ARG_OF_PERICENTER": 355.2486, "MEAN_ANOMALY": 4.8264, "EPHEMERIS_TYPE": 0, "CLASSIFICATION_TYPE": "U", "NORAD_CAT_ID": 69049, "ELEMENT_SET_NO": 999, "REV_AT_EPOCH": 419, "BSTAR": 0.0003466432, "MEAN_MOTION_DOT": 0.00029051, "MEAN_MOTION_DDOT": 0}, {"OBJECT_NAME": "DRAGON CRS-34", "OBJECT_ID": "2026-107A", "EPOCH": "2026-06-06T20:52:03.052128", "MEAN_MOTION": 15.4964234, "ECCENTRICITY": 0.0006978, "INCLINATION": 51.6338, "RA_OF_ASC_NODE": 351.1688, "ARG_OF_PERICENTER": 142.0049, "MEAN_ANOMALY": 218.1433, "EPHEMERIS_TYPE": 0, "CLASSIFICATION_TYPE": "U", "NORAD_CAT_ID": 69103, "ELEMENT_SET_NO": 999, "REV_AT_EPOCH": 57015, "BSTAR": 0.00017237, "MEAN_MOTION_DOT": 9.276e-05, "MEAN_MOTION_DDOT": 0}, {"OBJECT_NAME": "SHENZHOU-23 (SZ-23)", "OBJECT_ID": "2026-113A", "EPOCH": "2026-06-06T14:38:07.699776", "MEAN_MOTION": 15.60358302, "ECCENTRICITY": 0.00091619, "INCLINATION": 41.4693, "RA_OF_ASC_NODE": 26.3518, "ARG_OF_PERICENTER": 355.2486, "MEAN_ANOMALY": 4.8264, "EPHEMERIS_TYPE": 0, "CLASSIFICATION_TYPE": "U", "NORAD_CAT_ID": 69180, "ELEMENT_SET_NO": 999, "REV_AT_EPOCH": 29125, "BSTAR": 0.0003466432, "MEAN_MOTION_DOT": 0.00029051, "MEAN_MOTION_DDOT": 0}]