LEOPARD                 
1 67687U 98067YD  26156.08199676  .00060353  00000+0  74040-3 0  9994
2 67687  51.6318 354.9898 0008103 143.0545 217.1008 15.59699644 18310
HMU-SAT2                
1 67688U 98067YE  26157.80184685  .00080036  00000+0  89653-3 0  9996
2 67688  51.6287 345.4698 0007661 154.5207 205.6166 15.61954095 18593
CREW DRAGON 12          
1 67796U 26031A   26157.86947977  .00009276  00000+0  17237-3 0  9991
2 67796  51.6338 351.1688 0006978 142.0049 218.1433 15.49642340570153
PROGRESS-MS 33          
1 68319U 26058A   26157.86947977  .00009276  00000+0  17237-3 0  9992
2 68319  51.6338 351.1688 0006978 142.0049 218.1433 15.49642340570155
CYGNUS NG-24            
1 68689U 26079A   26157.35357136  .00009524  00000+0  17682-3 0  9991
2 68689  51.6338 353.7235 0007032 140.5893 219.5608 15.49632727636849
PROGRESS-MS 34          
1 68837U 26093A   26157.35357136  .00009524  00000+0  17682-3 0  9992
2 68837  51.6338 353.7235 0007032 140.5893 219.5608 15.49632727642919
TIANZHOU-10             
1 69049U 26102A   26157.60981134  .00029051  00000+0  34664-3 0  9994
2 69049  41.4693  26.3518 0009161 355.2486   4.8264 15.60358302  4193
DRAGON CRS-34           
1 69103U 26107A   26157.86947977  .00009276  00000+0  17237-3 0  9999
2 69103  51.6338 351.1688 0006978 142.0049 218.1433 15.49642340570157
SHENZHOU-23 (SZ-23)     
1 69180U 26113A   26157.60981134  .00029051  00000+0  34664-3 0  9992
2 69180  41.4693  26.3518 0009161 355.2486   4.8264 15.60358302291254
